NOAA 15                 
1 25338U 98030A   18099.56207247  .00000033  00000-0  32765-4 0  9994
2 25338  98.7740 115.9339 0011551  69.5636 290.6782 14.25845364 34987
NOAA 18                 
1 28654U 05018A   18099.60226381  .00000009  00000-0  30154-4 0  9990
2 28654  99.1531 133.6331 0013539 323.4218  36.6027 14.12371864664006
NOAA 19                 
1 33591U 09005A   18099.56056772  .00000106  00000-0  82637-4 0  9997
2 33591  99.1360  76.2481 0014325 155.7514 204.4333 14.12268087472227
METEOR-M 2              
1 40069U 14037A   18099.74456156 -.00000026  00000-0  80361-5 0  9991
2 40069  98.6113 152.6409 0006929  79.3813 280.8144 14.20650889194669
